[{"OBJECT_NAME":"STELLA","OBJECT_ID":"1993-061B","EPOCH":"2026-03-09T22:50:14.153280","MEAN_MOTION":14.2746756,"ECCENTRICITY":0.00067535,"INCLINATION":98.784,"RA_OF_ASC_NODE":132.7988,"ARG_OF_PERICENTER":156.9855,"MEAN_ANOMALY":327.7404,"EPHEMERIS_TYPE":0,"CLASSIFICATION_TYPE":"U","NORAD_CAT_ID":22824,"ELEMENT_SET_NO":999,"REV_AT_EPOCH":69061,"BSTAR":7.617075e-6,"MEAN_MOTION_DOT":-2.6e-7,"MEAN_MOTION_DDOT":0},{"OBJECT_NAME":"DMSP 5D-2 F13 DEB","OBJECT_ID":"1995-015G","EPOCH":"2026-03-09T00:32:41.070912","MEAN_MOTION":14.29729141,"ECCENTRICITY":0.00223945,"INCLINATION":98.6066,"RA_OF_ASC_NODE":92.2111,"ARG_OF_PERICENTER":204.7575,"MEAN_ANOMALY":155.2534,"EPHEMERIS_TYPE":0,"CLASSIFICATION_TYPE":"U","NORAD_CAT_ID":40395,"ELEMENT_SET_NO":999,"REV_AT_EPOCH":57336,"BSTAR":0.00067419395,"MEAN_MOTION_DOT":1.691e-5,"MEAN_MOTION_DDOT":0}]
